{"type": "FeatureCollection", "crs": {"type": "name", "properties": {"name": "EPSG:32631"}}, "features": [{"type": "Feature", "properties": {"threshold_db": -3, "area_ha_at_minus3dB": 0.85, "area_ha_at_minus2dB": 2.49, "area_ha_at_minus4dB": 0.58, "framing": "indicative co-event water extent vs normal-condition extent", "area_ha_at_minus2dB_note": "area of the -2 dB connected component containing this polygon (looser threshold merges neighbors)"}, "geometry": {"type": "Polygon", "coordinates": [[[279130.0, 663410.0], [279130.0, 663370.0], [279140.0, 663370.0], [279140.0, 663340.0], [279160.0, 663340.0], [279160.0, 663320.0], [279180.0, 663320.0], [279180.0, 663280.0], [279190.0, 663280.0], [279190.0, 663270.0], [279230.0, 663270.0], [279230.0, 663300.0], [279240.0, 663300.0], [279240.0, 663310.0], [279250.0, 663310.0], [279250.0, 663350.0], [279240.0, 663350.0], [279240.0, 663360.0], [279190.0, 663360.0], [279190.0, 663370.0], [279180.0, 663370.0], [279180.0, 663380.0], [279160.0, 663380.0], [279160.0, 663410.0], [279130.0, 663410.0]]]}}, {"type": "Feature", "properties": {"threshold_db": -3, "area_ha_at_minus3dB": 1.02, "area_ha_at_minus2dB": 2.49, "area_ha_at_minus4dB": 0.8, "framing": "indicative co-event water extent vs normal-condition extent", "area_ha_at_minus2dB_note": "area of the -2 dB connected component containing this polygon (looser threshold merges neighbors)"}, "geometry": {"type": "Polygon", "coordinates": [[[279290.0, 663390.0], [279290.0, 663370.0], [279270.0, 663370.0], [279270.0, 663310.0], [279290.0, 663310.0], [279290.0, 663300.0], [279300.0, 663300.0], [279300.0, 663290.0], [279310.0, 663290.0], [279310.0, 663280.0], [279340.0, 663280.0], [279340.0, 663240.0], [279360.0, 663240.0], [279360.0, 663230.0], [279390.0, 663230.0], [279390.0, 663300.0], [279380.0, 663300.0], [279380.0, 663330.0], [279330.0, 663330.0], [279330.0, 663380.0], [279320.0, 663380.0], [279320.0, 663390.0], [279290.0, 663390.0]]]}}, {"type": "Feature", "properties": {"threshold_db": -3, "area_ha_at_minus3dB": 1.08, "area_ha_at_minus2dB": 1.6, "area_ha_at_minus4dB": 0.73, "framing": "indicative co-event water extent vs normal-condition extent", "area_ha_at_minus2dB_note": "area of the -2 dB connected component containing this polygon (looser threshold merges neighbors)"}, "geometry": {"type": "Polygon", "coordinates": [[[280950.0, 663060.0], [280950.0, 663040.0], [280930.0, 663040.0], [280930.0, 663020.0], [280920.0, 663020.0], [280920.0, 662980.0], [280910.0, 662980.0], [280910.0, 662970.0], [280890.0, 662970.0], [280890.0, 662920.0], [280920.0, 662920.0], [280920.0, 662930.0], [280930.0, 662930.0], [280930.0, 662940.0], [280960.0, 662940.0], [280960.0, 662930.0], [281000.0, 662930.0], [281000.0, 662960.0], [281010.0, 662960.0], [281010.0, 662990.0], [280990.0, 662990.0], [280990.0, 663030.0], [281000.0, 663030.0], [281000.0, 663060.0], [280950.0, 663060.0]]]}}, {"type": "Feature", "properties": {"threshold_db": -3, "area_ha_at_minus3dB": 2.19, "area_ha_at_minus2dB": 3.29, "area_ha_at_minus4dB": 1.85, "framing": "indicative co-event water extent vs normal-condition extent", "area_ha_at_minus2dB_note": "area of the -2 dB connected component containing this polygon (looser threshold merges neighbors)"}, "geometry": {"type": "Polygon", "coordinates": [[[271230.0, 662650.0], [271230.0, 662640.0], [271210.0, 662640.0], [271210.0, 662610.0], [271190.0, 662610.0], [271190.0, 662580.0], [271200.0, 662580.0], [271200.0, 662570.0], [271180.0, 662570.0], [271180.0, 662580.0], [271140.0, 662580.0], [271140.0, 662540.0], [271150.0, 662540.0], [271150.0, 662520.0], [271160.0, 662520.0], [271160.0, 662500.0], [271210.0, 662500.0], [271210.0, 662510.0], [271250.0, 662510.0], [271250.0, 662500.0], [271290.0, 662500.0], [271290.0, 662470.0], [271330.0, 662470.0], [271330.0, 662480.0], [271340.0, 662480.0], [271340.0, 662490.0], [271350.0, 662490.0], [271350.0, 662500.0], [271360.0, 662500.0], [271360.0, 662530.0], [271340.0, 662530.0], [271340.0, 662550.0], [271330.0, 662550.0], [271330.0, 662570.0], [271310.0, 662570.0], [271310.0, 662610.0], [271270.0, 662610.0], [271270.0, 662650.0], [271230.0, 662650.0]], [[271240.0, 662590.0], [271250.0, 662590.0], [271250.0, 662580.0], [271260.0, 662580.0], [271260.0, 662570.0], [271240.0, 662570.0], [271240.0, 662590.0]]]}}, {"type": "Feature", "properties": {"threshold_db": -3, "area_ha_at_minus3dB": 0.57, "area_ha_at_minus2dB": 0.73, "area_ha_at_minus4dB": 0.0, "framing": "indicative co-event water extent vs normal-condition extent", "area_ha_at_minus2dB_note": "area of the -2 dB connected component containing this polygon (looser threshold merges neighbors)"}, "geometry": {"type": "Polygon", "coordinates": [[[280260.0, 662370.0], [280260.0, 662320.0], [280270.0, 662320.0], [280270.0, 662280.0], [280280.0, 662280.0], [280280.0, 662260.0], [280290.0, 662260.0], [280290.0, 662240.0], [280300.0, 662240.0], [280300.0, 662230.0], [280330.0, 662230.0], [280330.0, 662270.0], [280320.0, 662270.0], [280320.0, 662290.0], [280310.0, 662290.0], [280310.0, 662330.0], [280300.0, 662330.0], [280300.0, 662360.0], [280290.0, 662360.0], [280290.0, 662370.0], [280260.0, 662370.0]]]}}, {"type": "Feature", "properties": {"threshold_db": -3, "area_ha_at_minus3dB": 1.56, "area_ha_at_minus2dB": 1.66, "area_ha_at_minus4dB": 0.73, "framing": "indicative co-event water extent vs normal-condition extent", "area_ha_at_minus2dB_note": "area of the -2 dB connected component containing this polygon (looser threshold merges neighbors)"}, "geometry": {"type": "Polygon", "coordinates": [[[273190.0, 662110.0], [273190.0, 662100.0], [273170.0, 662100.0], [273170.0, 662090.0], [273160.0, 662090.0], [273160.0, 662040.0], [273200.0, 662040.0], [273200.0, 662030.0], [273160.0, 662030.0], [273160.0, 662020.0], [273150.0, 662020.0], [273150.0, 662010.0], [273130.0, 662010.0], [273130.0, 662000.0], [273120.0, 662000.0], [273120.0, 661980.0], [273110.0, 661980.0], [273110.0, 661970.0], [273100.0, 661970.0], [273100.0, 661960.0], [273090.0, 661960.0], [273090.0, 661930.0], [273100.0, 661930.0], [273100.0, 661920.0], [273130.0, 661920.0], [273130.0, 661940.0], [273140.0, 661940.0], [273140.0, 661950.0], [273150.0, 661950.0], [273150.0, 661960.0], [273170.0, 661960.0], [273170.0, 661930.0], [273210.0, 661930.0], [273210.0, 661940.0], [273220.0, 661940.0], [273220.0, 661980.0], [273210.0, 661980.0], [273210.0, 662000.0], [273230.0, 662000.0], [273230.0, 662040.0], [273240.0, 662040.0], [273240.0, 662060.0], [273250.0, 662060.0], [273250.0, 662090.0], [273240.0, 662090.0], [273240.0, 662110.0], [273190.0, 662110.0]]]}}, {"type": "Feature", "properties": {"threshold_db": -3, "area_ha_at_minus3dB": 1.36, "area_ha_at_minus2dB": 1.49, "area_ha_at_minus4dB": 1.35, "framing": "indicative co-event water extent vs normal-condition extent", "area_ha_at_minus2dB_note": "area of the -2 dB connected component containing this polygon (looser threshold merges neighbors)"}, "geometry": {"type": "Polygon", "coordinates": [[[276210.0, 653680.0], [276210.0, 653650.0], [276200.0, 653650.0], [276200.0, 653610.0], [276180.0, 653610.0], [276180.0, 653620.0], [276150.0, 653620.0], [276150.0, 653510.0], [276200.0, 653510.0], [276200.0, 653520.0], [276220.0, 653520.0], [276220.0, 653540.0], [276240.0, 653540.0], [276240.0, 653570.0], [276230.0, 653570.0], [276230.0, 653600.0], [276270.0, 653600.0], [276270.0, 653620.0], [276280.0, 653620.0], [276280.0, 653670.0], [276270.0, 653670.0], [276270.0, 653680.0], [276210.0, 653680.0]]]}}, {"type": "Feature", "properties": {"threshold_db": -3, "area_ha_at_minus3dB": 1.8, "area_ha_at_minus2dB": 2.02, "area_ha_at_minus4dB": 1.46, "framing": "indicative co-event water extent vs normal-condition extent", "area_ha_at_minus2dB_note": "area of the -2 dB connected component containing this polygon (looser threshold merges neighbors)"}, "geometry": {"type": "Polygon", "coordinates": [[[276480.0, 653650.0], [276480.0, 653640.0], [276460.0, 653640.0], [276460.0, 653630.0], [276450.0, 653630.0], [276450.0, 653610.0], [276430.0, 653610.0], [276430.0, 653580.0], [276410.0, 653580.0], [276410.0, 653570.0], [276390.0, 653570.0], [276390.0, 653560.0], [276350.0, 653560.0], [276350.0, 653550.0], [276330.0, 653550.0], [276330.0, 653520.0], [276360.0, 653520.0], [276360.0, 653510.0], [276390.0, 653510.0], [276390.0, 653530.0], [276430.0, 653530.0], [276430.0, 653500.0], [276390.0, 653500.0], [276390.0, 653470.0], [276410.0, 653470.0], [276410.0, 653440.0], [276450.0, 653440.0], [276450.0, 653430.0], [276480.0, 653430.0], [276480.0, 653440.0], [276500.0, 653440.0], [276500.0, 653470.0], [276480.0, 653470.0], [276480.0, 653580.0], [276490.0, 653580.0], [276490.0, 653600.0], [276510.0, 653600.0], [276510.0, 653650.0], [276480.0, 653650.0]]]}}, {"type": "Feature", "properties": {"threshold_db": -3, "area_ha_at_minus3dB": 0.66, "area_ha_at_minus2dB": 1.33, "area_ha_at_minus4dB": 0.0, "framing": "indicative co-event water extent vs normal-condition extent", "area_ha_at_minus2dB_note": "area of the -2 dB connected component containing this polygon (looser threshold merges neighbors)"}, "geometry": {"type": "Polygon", "coordinates": [[[275950.0, 653380.0], [275950.0, 653360.0], [275940.0, 653360.0], [275940.0, 653350.0], [275930.0, 653350.0], [275930.0, 653340.0], [275920.0, 653340.0], [275920.0, 653320.0], [275900.0, 653320.0], [275900.0, 653290.0], [275920.0, 653290.0], [275920.0, 653280.0], [275950.0, 653280.0], [275950.0, 653290.0], [275960.0, 653290.0], [275960.0, 653300.0], [275970.0, 653300.0], [275970.0, 653290.0], [276000.0, 653290.0], [276000.0, 653340.0], [275980.0, 653340.0], [275980.0, 653350.0], [275990.0, 653350.0], [275990.0, 653380.0], [275950.0, 653380.0]]]}}, {"type": "Feature", "properties": {"threshold_db": -3, "area_ha_at_minus3dB": 1.42, "area_ha_at_minus2dB": 3.07, "area_ha_at_minus4dB": 1.19, "framing": "indicative co-event water extent vs normal-condition extent", "area_ha_at_minus2dB_note": "area of the -2 dB connected component containing this polygon (looser threshold merges neighbors)"}, "geometry": {"type": "Polygon", "coordinates": [[[276390.0, 653330.0], [276390.0, 653320.0], [276370.0, 653320.0], [276370.0, 653310.0], [276360.0, 653310.0], [276360.0, 653300.0], [276320.0, 653300.0], [276320.0, 653270.0], [276340.0, 653270.0], [276340.0, 653260.0], [276350.0, 653260.0], [276350.0, 653230.0], [276390.0, 653230.0], [276390.0, 653290.0], [276410.0, 653290.0], [276410.0, 653280.0], [276420.0, 653280.0], [276420.0, 653270.0], [276430.0, 653270.0], [276430.0, 653230.0], [276440.0, 653230.0], [276440.0, 653220.0], [276450.0, 653220.0], [276450.0, 653210.0], [276460.0, 653210.0], [276460.0, 653200.0], [276500.0, 653200.0], [276500.0, 653240.0], [276520.0, 653240.0], [276520.0, 653270.0], [276510.0, 653270.0], [276510.0, 653280.0], [276500.0, 653280.0], [276500.0, 653300.0], [276480.0, 653300.0], [276480.0, 653310.0], [276460.0, 653310.0], [276460.0, 653320.0], [276440.0, 653320.0], [276440.0, 653330.0], [276390.0, 653330.0]]]}}, {"type": "Feature", "properties": {"threshold_db": -3, "area_ha_at_minus3dB": 0.86, "area_ha_at_minus2dB": 3.07, "area_ha_at_minus4dB": 0.65, "framing": "indicative co-event water extent vs normal-condition extent", "area_ha_at_minus2dB_note": "area of the -2 dB connected component containing this polygon (looser threshold merges neighbors)"}, "geometry": {"type": "Polygon", "coordinates": [[[276390.0, 653230.0], [276390.0, 653220.0], [276370.0, 653220.0], [276370.0, 653210.0], [276360.0, 653210.0], [276360.0, 653180.0], [276370.0, 653180.0], [276370.0, 653170.0], [276380.0, 653170.0], [276380.0, 653100.0], [276400.0, 653100.0], [276400.0, 653090.0], [276390.0, 653090.0], [276390.0, 653050.0], [276420.0, 653050.0], [276420.0, 653070.0], [276430.0, 653070.0], [276430.0, 653200.0], [276420.0, 653200.0], [276420.0, 653230.0], [276390.0, 653230.0]]]}}, {"type": "Feature", "properties": {"threshold_db": -3, "area_ha_at_minus3dB": 0.76, "area_ha_at_minus2dB": 1.06, "area_ha_at_minus4dB": 0.0, "framing": "indicative co-event water extent vs normal-condition extent", "area_ha_at_minus2dB_note": "area of the -2 dB connected component containing this polygon (looser threshold merges neighbors)"}, "geometry": {"type": "Polygon", "coordinates": [[[276270.0, 653110.0], [276270.0, 653070.0], [276280.0, 653070.0], [276280.0, 653030.0], [276290.0, 653030.0], [276290.0, 653020.0], [276300.0, 653020.0], [276300.0, 653010.0], [276310.0, 653010.0], [276310.0, 652980.0], [276340.0, 652980.0], [276340.0, 653010.0], [276350.0, 653010.0], [276350.0, 653040.0], [276320.0, 653040.0], [276320.0, 653060.0], [276340.0, 653060.0], [276340.0, 653070.0], [276360.0, 653070.0], [276360.0, 653100.0], [276350.0, 653100.0], [276350.0, 653110.0], [276270.0, 653110.0]]]}}, {"type": "Feature", "properties": {"threshold_db": -3, "area_ha_at_minus3dB": 0.51, "area_ha_at_minus2dB": 0.6, "area_ha_at_minus4dB": 0.0, "framing": "indicative co-event water extent vs normal-condition extent", "area_ha_at_minus2dB_note": "area of the -2 dB connected component containing this polygon (looser threshold merges neighbors)"}, "geometry": {"type": "Polygon", "coordinates": [[[276670.0, 652420.0], [276670.0, 652370.0], [276640.0, 652370.0], [276640.0, 652330.0], [276700.0, 652330.0], [276700.0, 652340.0], [276720.0, 652340.0], [276720.0, 652380.0], [276710.0, 652380.0], [276710.0, 652420.0], [276670.0, 652420.0]]]}}, {"type": "Feature", "properties": {"threshold_db": -3, "area_ha_at_minus3dB": 12.07, "area_ha_at_minus2dB": 15.59, "area_ha_at_minus4dB": 10.55, "framing": "indicative co-event water extent vs normal-condition extent", "area_ha_at_minus2dB_note": "area of the -2 dB connected component containing this polygon (looser threshold merges neighbors)"}, "geometry": {"type": "Polygon", "coordinates": [[[275940.0, 652370.0], [275940.0, 652360.0], [275930.0, 652360.0], [275930.0, 652320.0], [275950.0, 652320.0], [275950.0, 652310.0], [275940.0, 652310.0], [275940.0, 652290.0], [275920.0, 652290.0], [275920.0, 652260.0], [275930.0, 652260.0], [275930.0, 652250.0], [275940.0, 652250.0], [275940.0, 652230.0], [275950.0, 652230.0], [275950.0, 652220.0], [275940.0, 652220.0], [275940.0, 652190.0], [275950.0, 652190.0], [275950.0, 652100.0], [275980.0, 652100.0], [275980.0, 652120.0], [275990.0, 652120.0], [275990.0, 652150.0], [276000.0, 652150.0], [276000.0, 652160.0], [276010.0, 652160.0], [276010.0, 652110.0], [276040.0, 652110.0], [276040.0, 652060.0], [276000.0, 652060.0], [276000.0, 652050.0], [275980.0, 652050.0], [275980.0, 652070.0], [275950.0, 652070.0], [275950.0, 652040.0], [275940.0, 652040.0], [275940.0, 652050.0], [275920.0, 652050.0], [275920.0, 652060.0], [275930.0, 652060.0], [275930.0, 652090.0], [275920.0, 652090.0], [275920.0, 652110.0], [275910.0, 652110.0], [275910.0, 652190.0], [275880.0, 652190.0], [275880.0, 652180.0], [275790.0, 652180.0], [275790.0, 652170.0], [275770.0, 652170.0], [275770.0, 652160.0], [275760.0, 652160.0], [275760.0, 652130.0], [275730.0, 652130.0], [275730.0, 652140.0], [275700.0, 652140.0], [275700.0, 652120.0], [275660.0, 652120.0], [275660.0, 652110.0], [275640.0, 652110.0], [275640.0, 652020.0], [275650.0, 652020.0], [275650.0, 652010.0], [275660.0, 652010.0], [275660.0, 652000.0], [275670.0, 652000.0], [275670.0, 651990.0], [275650.0, 651990.0], [275650.0, 651930.0], [275660.0, 651930.0], [275660.0, 651910.0], [275680.0, 651910.0], [275680.0, 651900.0], [275750.0, 651900.0], [275750.0, 651910.0], [275760.0, 651910.0], [275760.0, 651950.0], [275750.0, 651950.0], [275750.0, 651970.0], [275780.0, 651970.0], [275780.0, 652000.0], [275810.0, 652000.0], [275810.0, 651990.0], [275830.0, 651990.0], [275830.0, 651980.0], [275790.0, 651980.0], [275790.0, 651960.0], [275780.0, 651960.0], [275780.0, 651950.0], [275770.0, 651950.0], [275770.0, 651910.0], [275800.0, 651910.0], [275800.0, 651920.0], [275810.0, 651920.0], [275810.0, 651910.0], [275820.0, 651910.0], [275820.0, 651890.0], [275830.0, 651890.0], [275830.0, 651880.0], [275920.0, 651880.0], [275920.0, 651890.0], [275930.0, 651890.0], [275930.0, 651870.0], [275940.0, 651870.0], [275940.0, 651850.0], [275980.0, 651850.0], [275980.0, 651860.0], [275990.0, 651860.0], [275990.0, 651870.0], [276020.0, 651870.0], [276020.0, 651880.0], [276040.0, 651880.0], [276040.0, 651890.0], [276050.0, 651890.0], [276050.0, 651940.0], [276080.0, 651940.0], [276080.0, 652000.0], [276070.0, 652000.0], [276070.0, 652050.0], [276080.0, 652050.0], [276080.0, 652060.0], [276100.0, 652060.0], [276100.0, 652090.0], [276110.0, 652090.0], [276110.0, 652150.0], [276120.0, 652150.0], [276120.0, 652160.0], [276130.0, 652160.0], [276130.0, 652200.0], [276120.0, 652200.0], [276120.0, 652210.0], [276110.0, 652210.0], [276110.0, 652230.0], [276090.0, 652230.0], [276090.0, 652250.0], [276050.0, 652250.0], [276050.0, 652260.0], [276040.0, 652260.0], [276040.0, 652270.0], [276020.0, 652270.0], [276020.0, 652280.0], [276000.0, 652280.0], [276000.0, 652330.0], [275990.0, 652330.0], [275990.0, 652360.0], [275970.0, 652360.0], [275970.0, 652370.0], [275940.0, 652370.0]], [[275760.0, 652120.0], [275780.0, 652120.0], [275780.0, 652110.0], [275800.0, 652110.0], [275800.0, 652100.0], [275790.0, 652100.0], [275790.0, 652090.0], [275780.0, 652090.0], [275780.0, 652080.0], [275760.0, 652080.0], [275760.0, 652090.0], [275750.0, 652090.0], [275750.0, 652100.0], [275760.0, 652100.0], [275760.0, 652120.0]], [[276040.0, 652120.0], [276050.0, 652120.0], [276050.0, 652110.0], [276040.0, 652110.0], [276040.0, 652120.0]], [[275680.0, 652090.0], [275710.0, 652090.0], [275710.0, 652080.0], [275720.0, 652080.0], [275720.0, 652060.0], [275710.0, 652060.0], [275710.0, 652050.0], [275700.0, 652050.0], [275700.0, 652060.0], [275680.0, 652060.0], [275680.0, 652090.0]], [[275830.0, 652070.0], [275850.0, 652070.0], [275850.0, 652060.0], [275860.0, 652060.0], [275860.0, 652050.0], [275840.0, 652050.0], [275840.0, 652060.0], [275830.0, 652060.0], [275830.0, 652070.0]], [[275860.0, 652050.0], [275870.0, 652050.0], [275870.0, 652040.0], [275880.0, 652040.0], [275880.0, 652030.0], [275860.0, 652030.0], [275860.0, 652050.0]], [[275970.0, 652010.0], [275990.0, 652010.0], [275990.0, 651980.0], [275980.0, 651980.0], [275980.0, 651950.0], [275970.0, 651950.0], [275970.0, 651940.0], [275960.0, 651940.0], [275960.0, 651950.0], [275920.0, 651950.0], [275920.0, 651910.0], [275900.0, 651910.0], [275900.0, 651930.0], [275880.0, 651930.0], [275880.0, 651940.0], [275870.0, 651940.0], [275870.0, 651980.0], [275860.0, 651980.0], [275860.0, 652000.0], [275880.0, 652000.0], [275880.0, 651990.0], [275950.0, 651990.0], [275950.0, 652000.0], [275970.0, 652000.0], [275970.0, 652010.0]], [[275960.0, 651910.0], [275990.0, 651910.0], [275990.0, 651900.0], [275960.0, 651900.0], [275960.0, 651910.0]]]}}, {"type": "Feature", "properties": {"threshold_db": -3, "area_ha_at_minus3dB": 1.6, "area_ha_at_minus2dB": 15.59, "area_ha_at_minus4dB": 1.39, "framing": "indicative co-event water extent vs normal-condition extent", "area_ha_at_minus2dB_note": "area of the -2 dB connected component containing this polygon (looser threshold merges neighbors)"}, "geometry": {"type": "Polygon", "coordinates": [[[275840.0, 651850.0], [275840.0, 651840.0], [275830.0, 651840.0], [275830.0, 651820.0], [275820.0, 651820.0], [275820.0, 651840.0], [275790.0, 651840.0], [275790.0, 651790.0], [275800.0, 651790.0], [275800.0, 651780.0], [275810.0, 651780.0], [275810.0, 651750.0], [275830.0, 651750.0], [275830.0, 651730.0], [275820.0, 651730.0], [275820.0, 651710.0], [275800.0, 651710.0], [275800.0, 651680.0], [275830.0, 651680.0], [275830.0, 651700.0], [275840.0, 651700.0], [275840.0, 651690.0], [275850.0, 651690.0], [275850.0, 651670.0], [275880.0, 651670.0], [275880.0, 651730.0], [275900.0, 651730.0], [275900.0, 651740.0], [275920.0, 651740.0], [275920.0, 651830.0], [275880.0, 651830.0], [275880.0, 651850.0], [275840.0, 651850.0]]]}}, {"type": "Feature", "properties": {"threshold_db": -3, "area_ha_at_minus3dB": 0.61, "area_ha_at_minus2dB": 0.67, "area_ha_at_minus4dB": 0.0, "framing": "indicative co-event water extent vs normal-condition extent", "area_ha_at_minus2dB_note": "area of the -2 dB connected component containing this polygon (looser threshold merges neighbors)"}, "geometry": {"type": "Polygon", "coordinates": [[[275810.0, 651490.0], [275810.0, 651480.0], [275790.0, 651480.0], [275790.0, 651470.0], [275780.0, 651470.0], [275780.0, 651420.0], [275820.0, 651420.0], [275820.0, 651410.0], [275860.0, 651410.0], [275860.0, 651420.0], [275870.0, 651420.0], [275870.0, 651470.0], [275860.0, 651470.0], [275860.0, 651490.0], [275810.0, 651490.0]]]}}, {"type": "Feature", "properties": {"threshold_db": -3, "area_ha_at_minus3dB": 0.52, "area_ha_at_minus2dB": 0.54, "area_ha_at_minus4dB": 0.0, "framing": "indicative co-event water extent vs normal-condition extent", "area_ha_at_minus2dB_note": "area of the -2 dB connected component containing this polygon (looser threshold merges neighbors)"}, "geometry": {"type": "Polygon", "coordinates": [[[275340.0, 650790.0], [275340.0, 650740.0], [275350.0, 650740.0], [275350.0, 650710.0], [275380.0, 650710.0], [275380.0, 650680.0], [275390.0, 650680.0], [275390.0, 650670.0], [275420.0, 650670.0], [275420.0, 650680.0], [275430.0, 650680.0], [275430.0, 650720.0], [275390.0, 650720.0], [275390.0, 650740.0], [275380.0, 650740.0], [275380.0, 650770.0], [275370.0, 650770.0], [275370.0, 650790.0], [275340.0, 650790.0]]]}}, {"type": "Feature", "properties": {"threshold_db": -3, "area_ha_at_minus3dB": 0.88, "area_ha_at_minus2dB": 0.94, "area_ha_at_minus4dB": 0.55, "framing": "indicative co-event water extent vs normal-condition extent", "area_ha_at_minus2dB_note": "area of the -2 dB connected component containing this polygon (looser threshold merges neighbors)"}, "geometry": {"type": "Polygon", "coordinates": [[[275460.0, 650660.0], [275460.0, 650620.0], [275490.0, 650620.0], [275490.0, 650570.0], [275460.0, 650570.0], [275460.0, 650540.0], [275500.0, 650540.0], [275500.0, 650530.0], [275530.0, 650530.0], [275530.0, 650550.0], [275540.0, 650550.0], [275540.0, 650560.0], [275550.0, 650560.0], [275550.0, 650630.0], [275540.0, 650630.0], [275540.0, 650660.0], [275510.0, 650660.0], [275510.0, 650650.0], [275490.0, 650650.0], [275490.0, 650660.0], [275460.0, 650660.0]]]}}, {"type": "Feature", "properties": {"threshold_db": -3, "area_ha_at_minus3dB": 0.87, "area_ha_at_minus2dB": 1.16, "area_ha_at_minus4dB": 0.71, "framing": "indicative co-event water extent vs normal-condition extent", "area_ha_at_minus2dB_note": "area of the -2 dB connected component containing this polygon (looser threshold merges neighbors)"}, "geometry": {"type": "Polygon", "coordinates": [[[275480.0, 650500.0], [275480.0, 650450.0], [275440.0, 650450.0], [275440.0, 650440.0], [275430.0, 650440.0], [275430.0, 650400.0], [275470.0, 650400.0], [275470.0, 650410.0], [275480.0, 650410.0], [275480.0, 650420.0], [275520.0, 650420.0], [275520.0, 650390.0], [275550.0, 650390.0], [275550.0, 650400.0], [275560.0, 650400.0], [275560.0, 650430.0], [275540.0, 650430.0], [275540.0, 650440.0], [275560.0, 650440.0], [275560.0, 650470.0], [275540.0, 650470.0], [275540.0, 650480.0], [275530.0, 650480.0], [275530.0, 650490.0], [275520.0, 650490.0], [275520.0, 650500.0], [275480.0, 650500.0]]]}}, {"type": "Feature", "properties": {"threshold_db": -3, "area_ha_at_minus3dB": 1.09, "area_ha_at_minus2dB": 1.45, "area_ha_at_minus4dB": 0.78, "framing": "indicative co-event water extent vs normal-condition extent", "area_ha_at_minus2dB_note": "area of the -2 dB connected component containing this polygon (looser threshold merges neighbors)"}, "geometry": {"type": "Polygon", "coordinates": [[[275320.0, 650410.0], [275320.0, 650370.0], [275290.0, 650370.0], [275290.0, 650340.0], [275310.0, 650340.0], [275310.0, 650320.0], [275270.0, 650320.0], [275270.0, 650290.0], [275280.0, 650290.0], [275280.0, 650280.0], [275290.0, 650280.0], [275290.0, 650260.0], [275300.0, 650260.0], [275300.0, 650240.0], [275330.0, 650240.0], [275330.0, 650290.0], [275350.0, 650290.0], [275350.0, 650320.0], [275360.0, 650320.0], [275360.0, 650330.0], [275370.0, 650330.0], [275370.0, 650340.0], [275390.0, 650340.0], [275390.0, 650350.0], [275400.0, 650350.0], [275400.0, 650390.0], [275390.0, 650390.0], [275390.0, 650400.0], [275350.0, 650400.0], [275350.0, 650410.0], [275320.0, 650410.0]], [[275320.0, 650370.0], [275330.0, 650370.0], [275330.0, 650360.0], [275340.0, 650360.0], [275340.0, 650350.0], [275320.0, 650350.0], [275320.0, 650370.0]]]}}, {"type": "Feature", "properties": {"threshold_db": -3, "area_ha_at_minus3dB": 2.68, "area_ha_at_minus2dB": 3.52, "area_ha_at_minus4dB": 2.25, "framing": "indicative co-event water extent vs normal-condition extent", "area_ha_at_minus2dB_note": "area of the -2 dB connected component containing this polygon (looser threshold merges neighbors)"}, "geometry": {"type": "Polygon", "coordinates": [[[271560.0, 650340.0], [271560.0, 650330.0], [271530.0, 650330.0], [271530.0, 650300.0], [271540.0, 650300.0], [271540.0, 650280.0], [271370.0, 650280.0], [271370.0, 650270.0], [271360.0, 650270.0], [271360.0, 650260.0], [271320.0, 650260.0], [271320.0, 650230.0], [271310.0, 650230.0], [271310.0, 650220.0], [271300.0, 650220.0], [271300.0, 650210.0], [271280.0, 650210.0], [271280.0, 650200.0], [271270.0, 650200.0], [271270.0, 650190.0], [271260.0, 650190.0], [271260.0, 650180.0], [271250.0, 650180.0], [271250.0, 650150.0], [271260.0, 650150.0], [271260.0, 650120.0], [271310.0, 650120.0], [271310.0, 650130.0], [271320.0, 650130.0], [271320.0, 650140.0], [271330.0, 650140.0], [271330.0, 650180.0], [271340.0, 650180.0], [271340.0, 650190.0], [271380.0, 650190.0], [271380.0, 650220.0], [271390.0, 650220.0], [271390.0, 650200.0], [271400.0, 650200.0], [271400.0, 650180.0], [271430.0, 650180.0], [271430.0, 650190.0], [271450.0, 650190.0], [271450.0, 650200.0], [271490.0, 650200.0], [271490.0, 650230.0], [271480.0, 650230.0], [271480.0, 650250.0], [271500.0, 650250.0], [271500.0, 650220.0], [271530.0, 650220.0], [271530.0, 650240.0], [271540.0, 650240.0], [271540.0, 650250.0], [271550.0, 650250.0], [271550.0, 650260.0], [271580.0, 650260.0], [271580.0, 650270.0], [271600.0, 650270.0], [271600.0, 650300.0], [271590.0, 650300.0], [271590.0, 650340.0], [271560.0, 650340.0]]]}}, {"type": "Feature", "properties": {"threshold_db": -3, "area_ha_at_minus3dB": 0.64, "area_ha_at_minus2dB": 0.77, "area_ha_at_minus4dB": 0.0, "framing": "indicative co-event water extent vs normal-condition extent", "area_ha_at_minus2dB_note": "area of the -2 dB connected component containing this polygon (looser threshold merges neighbors)"}, "geometry": {"type": "Polygon", "coordinates": [[[272300.0, 650330.0], [272300.0, 650320.0], [272290.0, 650320.0], [272290.0, 650300.0], [272260.0, 650300.0], [272260.0, 650290.0], [272250.0, 650290.0], [272250.0, 650260.0], [272240.0, 650260.0], [272240.0, 650220.0], [272290.0, 650220.0], [272290.0, 650250.0], [272300.0, 650250.0], [272300.0, 650260.0], [272310.0, 650260.0], [272310.0, 650270.0], [272320.0, 650270.0], [272320.0, 650280.0], [272340.0, 650280.0], [272340.0, 650320.0], [272330.0, 650320.0], [272330.0, 650330.0], [272300.0, 650330.0]]]}}, {"type": "Feature", "properties": {"threshold_db": -3, "area_ha_at_minus3dB": 2.44, "area_ha_at_minus2dB": 3.19, "area_ha_at_minus4dB": 1.96, "framing": "indicative co-event water extent vs normal-condition extent", "area_ha_at_minus2dB_note": "area of the -2 dB connected component containing this polygon (looser threshold merges neighbors)"}, "geometry": {"type": "Polygon", "coordinates": [[[272190.0, 650190.0], [272190.0, 650180.0], [272160.0, 650180.0], [272160.0, 650160.0], [272100.0, 650160.0], [272100.0, 650150.0], [272070.0, 650150.0], [272070.0, 650110.0], [272090.0, 650110.0], [272090.0, 650100.0], [272100.0, 650100.0], [272100.0, 650080.0], [272070.0, 650080.0], [272070.0, 650050.0], [272050.0, 650050.0], [272050.0, 650030.0], [272020.0, 650030.0], [272020.0, 650010.0], [272000.0, 650010.0], [272000.0, 649980.0], [271980.0, 649980.0], [271980.0, 649930.0], [271950.0, 649930.0], [271950.0, 649890.0], [272000.0, 649890.0], [272000.0, 649900.0], [272010.0, 649900.0], [272010.0, 649910.0], [272020.0, 649910.0], [272020.0, 649930.0], [272040.0, 649930.0], [272040.0, 649940.0], [272050.0, 649940.0], [272050.0, 649970.0], [272080.0, 649970.0], [272080.0, 650000.0], [272090.0, 650000.0], [272090.0, 650020.0], [272100.0, 650020.0], [272100.0, 650040.0], [272120.0, 650040.0], [272120.0, 650070.0], [272130.0, 650070.0], [272130.0, 650090.0], [272180.0, 650090.0], [272180.0, 650110.0], [272240.0, 650110.0], [272240.0, 650120.0], [272250.0, 650120.0], [272250.0, 650150.0], [272230.0, 650150.0], [272230.0, 650190.0], [272190.0, 650190.0]], [[272160.0, 650150.0], [272180.0, 650150.0], [272180.0, 650120.0], [272170.0, 650120.0], [272170.0, 650130.0], [272160.0, 650130.0], [272160.0, 650150.0]], [[272030.0, 649990.0], [272040.0, 649990.0], [272040.0, 649980.0], [272050.0, 649980.0], [272050.0, 649970.0], [272030.0, 649970.0], [272030.0, 649990.0]]]}}, {"type": "Feature", "properties": {"threshold_db": -3, "area_ha_at_minus3dB": 1.83, "area_ha_at_minus2dB": 2.06, "area_ha_at_minus4dB": 1.52, "framing": "indicative co-event water extent vs normal-condition extent", "area_ha_at_minus2dB_note": "area of the -2 dB connected component containing this polygon (looser threshold merges neighbors)"}, "geometry": {"type": "Polygon", "coordinates": [[[275110.0, 650190.0], [275110.0, 650160.0], [275090.0, 650160.0], [275090.0, 650150.0], [275070.0, 650150.0], [275070.0, 650140.0], [275030.0, 650140.0], [275030.0, 650100.0], [275060.0, 650100.0], [275060.0, 650090.0], [275070.0, 650090.0], [275070.0, 650050.0], [275110.0, 650050.0], [275110.0, 650090.0], [275130.0, 650090.0], [275130.0, 650100.0], [275180.0, 650100.0], [275180.0, 650110.0], [275190.0, 650110.0], [275190.0, 650120.0], [275220.0, 650120.0], [275220.0, 650110.0], [275250.0, 650110.0], [275250.0, 650120.0], [275280.0, 650120.0], [275280.0, 650150.0], [275270.0, 650150.0], [275270.0, 650180.0], [275240.0, 650180.0], [275240.0, 650170.0], [275230.0, 650170.0], [275230.0, 650160.0], [275220.0, 650160.0], [275220.0, 650180.0], [275210.0, 650180.0], [275210.0, 650190.0], [275180.0, 650190.0], [275180.0, 650180.0], [275160.0, 650180.0], [275160.0, 650190.0], [275110.0, 650190.0]]]}}, {"type": "Feature", "properties": {"threshold_db": -3, "area_ha_at_minus3dB": 0.54, "area_ha_at_minus2dB": 0.84, "area_ha_at_minus4dB": 0.0, "framing": "indicative co-event water extent vs normal-condition extent", "area_ha_at_minus2dB_note": "area of the -2 dB connected component containing this polygon (looser threshold merges neighbors)"}, "geometry": {"type": "Polygon", "coordinates": [[[274280.0, 650080.0], [274280.0, 650070.0], [274260.0, 650070.0], [274260.0, 650030.0], [274270.0, 650030.0], [274270.0, 650010.0], [274250.0, 650010.0], [274250.0, 649980.0], [274290.0, 649980.0], [274290.0, 649990.0], [274310.0, 649990.0], [274310.0, 650040.0], [274320.0, 650040.0], [274320.0, 650050.0], [274330.0, 650050.0], [274330.0, 650080.0], [274280.0, 650080.0]]]}}, {"type": "Feature", "properties": {"threshold_db": -3, "area_ha_at_minus3dB": 0.92, "area_ha_at_minus2dB": 1.14, "area_ha_at_minus4dB": 0.59, "framing": "indicative co-event water extent vs normal-condition extent", "area_ha_at_minus2dB_note": "area of the -2 dB connected component containing this polygon (looser threshold merges neighbors)"}, "geometry": {"type": "Polygon", "coordinates": [[[270940.0, 649980.0], [270940.0, 649950.0], [270950.0, 649950.0], [270950.0, 649940.0], [270960.0, 649940.0], [270960.0, 649930.0], [270970.0, 649930.0], [270970.0, 649920.0], [270980.0, 649920.0], [270980.0, 649910.0], [270960.0, 649910.0], [270960.0, 649900.0], [270950.0, 649900.0], [270950.0, 649860.0], [270980.0, 649860.0], [270980.0, 649870.0], [270990.0, 649870.0], [270990.0, 649910.0], [271010.0, 649910.0], [271010.0, 649900.0], [271090.0, 649900.0], [271090.0, 649940.0], [271070.0, 649940.0], [271070.0, 649950.0], [271000.0, 649950.0], [271000.0, 649980.0], [270940.0, 649980.0]]]}}, {"type": "Feature", "properties": {"threshold_db": -3, "area_ha_at_minus3dB": 0.51, "area_ha_at_minus2dB": 1.11, "area_ha_at_minus4dB": 0.0, "framing": "indicative co-event water extent vs normal-condition extent", "area_ha_at_minus2dB_note": "area of the -2 dB connected component containing this polygon (looser threshold merges neighbors)"}, "geometry": {"type": "Polygon", "coordinates": [[[271190.0, 649850.0], [271190.0, 649840.0], [271180.0, 649840.0], [271180.0, 649810.0], [271170.0, 649810.0], [271170.0, 649840.0], [271130.0, 649840.0], [271130.0, 649830.0], [271120.0, 649830.0], [271120.0, 649800.0], [271140.0, 649800.0], [271140.0, 649790.0], [271150.0, 649790.0], [271150.0, 649780.0], [271160.0, 649780.0], [271160.0, 649770.0], [271200.0, 649770.0], [271200.0, 649810.0], [271210.0, 649810.0], [271210.0, 649820.0], [271220.0, 649820.0], [271220.0, 649850.0], [271190.0, 649850.0]]]}}, {"type": "Feature", "properties": {"threshold_db": -3, "area_ha_at_minus3dB": 0.7, "area_ha_at_minus2dB": 0.82, "area_ha_at_minus4dB": 0.64, "framing": "indicative co-event water extent vs normal-condition extent", "area_ha_at_minus2dB_note": "area of the -2 dB connected component containing this polygon (looser threshold merges neighbors)"}, "geometry": {"type": "Polygon", "coordinates": [[[275550.0, 649650.0], [275550.0, 649610.0], [275560.0, 649610.0], [275560.0, 649590.0], [275570.0, 649590.0], [275570.0, 649550.0], [275580.0, 649550.0], [275580.0, 649540.0], [275610.0, 649540.0], [275610.0, 649520.0], [275650.0, 649520.0], [275650.0, 649570.0], [275630.0, 649570.0], [275630.0, 649580.0], [275620.0, 649580.0], [275620.0, 649590.0], [275610.0, 649590.0], [275610.0, 649620.0], [275600.0, 649620.0], [275600.0, 649630.0], [275590.0, 649630.0], [275590.0, 649640.0], [275580.0, 649640.0], [275580.0, 649650.0], [275550.0, 649650.0]]]}}, {"type": "Feature", "properties": {"threshold_db": -3, "area_ha_at_minus3dB": 0.54, "area_ha_at_minus2dB": 0.54, "area_ha_at_minus4dB": 0.54, "framing": "indicative co-event water extent vs normal-condition extent", "area_ha_at_minus2dB_note": "area of the -2 dB connected component containing this polygon (looser threshold merges neighbors)"}, "geometry": {"type": "Polygon", "coordinates": [[[277780.0, 649630.0], [277780.0, 649560.0], [277760.0, 649560.0], [277760.0, 649530.0], [277820.0, 649530.0], [277820.0, 649550.0], [277830.0, 649550.0], [277830.0, 649630.0], [277780.0, 649630.0]]]}}, {"type": "Feature", "properties": {"threshold_db": -3, "area_ha_at_minus3dB": 0.7, "area_ha_at_minus2dB": 0.76, "area_ha_at_minus4dB": 0.0, "framing": "indicative co-event water extent vs normal-condition extent", "area_ha_at_minus2dB_note": "area of the -2 dB connected component containing this polygon (looser threshold merges neighbors)"}, "geometry": {"type": "Polygon", "coordinates": [[[274760.0, 649100.0], [274760.0, 649070.0], [274740.0, 649070.0], [274740.0, 649060.0], [274720.0, 649060.0], [274720.0, 649030.0], [274770.0, 649030.0], [274770.0, 648990.0], [274800.0, 648990.0], [274800.0, 649010.0], [274830.0, 649010.0], [274830.0, 649060.0], [274810.0, 649060.0], [274810.0, 649070.0], [274800.0, 649070.0], [274800.0, 649100.0], [274760.0, 649100.0]]]}}, {"type": "Feature", "properties": {"threshold_db": -3, "area_ha_at_minus3dB": 0.54, "area_ha_at_minus2dB": 0.58, "area_ha_at_minus4dB": 0.0, "framing": "indicative co-event water extent vs normal-condition extent", "area_ha_at_minus2dB_note": "area of the -2 dB connected component containing this polygon (looser threshold merges neighbors)"}, "geometry": {"type": "Polygon", "coordinates": [[[275130.0, 648100.0], [275130.0, 648040.0], [275140.0, 648040.0], [275140.0, 648030.0], [275150.0, 648030.0], [275150.0, 647990.0], [275190.0, 647990.0], [275190.0, 648020.0], [275180.0, 648020.0], [275180.0, 648050.0], [275190.0, 648050.0], [275190.0, 648100.0], [275130.0, 648100.0]]]}}]}