{"type": "FeatureCollection", "features": [{"type": "Feature", "properties": {"transect_id": 306, "change_m": 14.6, "rate_m_per_yr": 1.86, "zone": "Keta town frontage", "label": "PUBLIC-OPEN DATA", "period": "2017-03-07 to 2025-01-07 (7.84 yr)"}, "geometry": {"type": "Point", "coordinates": [0.9974074445002428, 5.92988295161773]}}, {"type": "Feature", "properties": {"transect_id": 307, "change_m": 75.0, "rate_m_per_yr": 9.57, "zone": "Keta town frontage", "label": "PUBLIC-OPEN DATA", "period": "2017-03-07 to 2025-01-07 (7.84 yr)"}, "geometry": {"type": "Point", "coordinates": [0.9978789561281218, 5.9306581345288025]}}, {"type": "Feature", "properties": {"transect_id": 308, "change_m": 4.0, "rate_m_per_yr": 0.5, "zone": "Keta town frontage", "label": "PUBLIC-OPEN DATA", "period": "2017-03-07 to 2025-01-07 (7.84 yr)"}, "geometry": {"type": "Point", "coordinates": [0.9982899514669817, 5.931466773752702]}}, {"type": "Feature", "properties": {"transect_id": 309, "change_m": 0.0, "rate_m_per_yr": 0.0, "zone": "Keta town frontage", "label": "PUBLIC-OPEN DATA", "period": "2017-03-07 to 2025-01-07 (7.84 yr)"}, "geometry": {"type": "Point", "coordinates": [0.9986939382898006, 5.9322792881212525]}}, {"type": "Feature", "properties": {"transect_id": 310, "change_m": 7.4, "rate_m_per_yr": 0.95, "zone": "Keta town frontage", "label": "PUBLIC-OPEN DATA", "period": "2017-03-07 to 2025-01-07 (7.84 yr)"}, "geometry": {"type": "Point", "coordinates": [0.9991002266639432, 5.93309065021259]}}, {"type": "Feature", "properties": {"transect_id": 311, "change_m": 22.4, "rate_m_per_yr": 2.86, "zone": "Keta town frontage", "label": "PUBLIC-OPEN DATA", "period": "2017-03-07 to 2025-01-07 (7.84 yr)"}, "geometry": {"type": "Point", "coordinates": [0.9995073318311177, 5.933901603714795]}}, {"type": "Feature", "properties": {"transect_id": 312, "change_m": -14.6, "rate_m_per_yr": -1.86, "zone": "Keta town frontage", "label": "PUBLIC-OPEN DATA", "period": "2017-03-07 to 2025-01-07 (7.84 yr)"}, "geometry": {"type": "Point", "coordinates": [0.9999340157605653, 5.934701458128676]}}, {"type": "Feature", "properties": {"transect_id": 313, "change_m": 0.0, "rate_m_per_yr": 0.0, "zone": "Kedzi coastal strip", "label": "PUBLIC-OPEN DATA", "period": "2017-03-07 to 2025-01-07 (7.84 yr)"}, "geometry": {"type": "Point", "coordinates": [1.0004190809987268, 5.935468215390165]}}, {"type": "Feature", "properties": {"transect_id": 314, "change_m": -14.4, "rate_m_per_yr": -1.83, "zone": "Kedzi coastal strip", "label": "PUBLIC-OPEN DATA", "period": "2017-03-07 to 2025-01-07 (7.84 yr)"}, "geometry": {"type": "Point", "coordinates": [1.000904147366266, 5.936234972657456]}}, {"type": "Feature", "properties": {"transect_id": 315, "change_m": -5.4, "rate_m_per_yr": -0.69, "zone": "Kedzi coastal strip", "label": "PUBLIC-OPEN DATA", "period": "2017-03-07 to 2025-01-07 (7.84 yr)"}, "geometry": {"type": "Point", "coordinates": [1.0014457421213419, 5.9369626034582295]}}, {"type": "Feature", "properties": {"transect_id": 316, "change_m": 28.5, "rate_m_per_yr": 3.64, "zone": "Kedzi coastal strip", "label": "PUBLIC-OPEN DATA", "period": "2017-03-07 to 2025-01-07 (7.84 yr)"}, "geometry": {"type": "Point", "coordinates": [1.0019431757815809, 5.937716823788318]}}, {"type": "Feature", "properties": {"transect_id": 317, "change_m": 11.8, "rate_m_per_yr": 1.51, "zone": "Kedzi coastal strip", "label": "PUBLIC-OPEN DATA", "period": "2017-03-07 to 2025-01-07 (7.84 yr)"}, "geometry": {"type": "Point", "coordinates": [1.0023439490493788, 5.938528327767348]}}, {"type": "Feature", "properties": {"transect_id": 318, "change_m": -34.2, "rate_m_per_yr": -4.36, "zone": "Kedzi coastal strip", "label": "PUBLIC-OPEN DATA", "period": "2017-03-07 to 2025-01-07 (7.84 yr)"}, "geometry": {"type": "Point", "coordinates": [1.0028326907518683, 5.939275171560609]}}, {"type": "Feature", "properties": {"transect_id": 319, "change_m": -35.9, "rate_m_per_yr": -4.58, "zone": "Kedzi coastal strip", "label": "PUBLIC-OPEN DATA", "period": "2017-03-07 to 2025-01-07 (7.84 yr)"}, "geometry": {"type": "Point", "coordinates": [1.003283247730843, 5.940062600116378]}}, {"type": "Feature", "properties": {"transect_id": 320, "change_m": -26.5, "rate_m_per_yr": -3.38, "zone": "Kedzi coastal strip", "label": "PUBLIC-OPEN DATA", "period": "2017-03-07 to 2025-01-07 (7.84 yr)"}, "geometry": {"type": "Point", "coordinates": [1.003747761570516, 5.9408420158193955]}}, {"type": "Feature", "properties": {"transect_id": 321, "change_m": -10.5, "rate_m_per_yr": -1.34, "zone": "Kedzi coastal strip", "label": "PUBLIC-OPEN DATA", "period": "2017-03-07 to 2025-01-07 (7.84 yr)"}, "geometry": {"type": "Point", "coordinates": [1.004120859253431, 5.941666382500678]}}, {"type": "Feature", "properties": {"transect_id": 322, "change_m": -25.1, "rate_m_per_yr": -3.2, "zone": "Kedzi coastal strip", "label": "PUBLIC-OPEN DATA", "period": "2017-03-07 to 2025-01-07 (7.84 yr)"}, "geometry": {"type": "Point", "coordinates": [1.004535887879166, 5.942461349732684]}}, {"type": "Feature", "properties": {"transect_id": 323, "change_m": -31.1, "rate_m_per_yr": -3.96, "zone": "Kedzi coastal strip", "label": "PUBLIC-OPEN DATA", "period": "2017-03-07 to 2025-01-07 (7.84 yr)"}, "geometry": {"type": "Point", "coordinates": [1.0051206074336965, 5.943154927938463]}}, {"type": "Feature", "properties": {"transect_id": 324, "change_m": -12.7, "rate_m_per_yr": -1.61, "zone": "Kedzi coastal strip", "label": "PUBLIC-OPEN DATA", "period": "2017-03-07 to 2025-01-07 (7.84 yr)"}, "geometry": {"type": "Point", "coordinates": [1.0056876739728358, 5.943863013181633]}}, {"type": "Feature", "properties": {"transect_id": 325, "change_m": -8.4, "rate_m_per_yr": -1.07, "zone": "Kedzi coastal strip", "label": "PUBLIC-OPEN DATA", "period": "2017-03-07 to 2025-01-07 (7.84 yr)"}, "geometry": {"type": "Point", "coordinates": [1.0061736473335985, 5.944618173897493]}}, {"type": "Feature", "properties": {"transect_id": 326, "change_m": 22.8, "rate_m_per_yr": 2.91, "zone": "Kedzi coastal strip", "label": "PUBLIC-OPEN DATA", "period": "2017-03-07 to 2025-01-07 (7.84 yr)"}, "geometry": {"type": "Point", "coordinates": [1.0064022762399323, 5.944864498622462]}}, {"type": "Feature", "properties": {"transect_id": 327, "change_m": -25.4, "rate_m_per_yr": -3.24, "zone": "Kedzi coastal strip", "label": "PUBLIC-OPEN DATA", "period": "2017-03-07 to 2025-01-07 (7.84 yr)"}, "geometry": {"type": "Point", "coordinates": [1.0066638839221802, 5.9451783121918105]}}, {"type": "Feature", "properties": {"transect_id": 328, "change_m": -7.2, "rate_m_per_yr": -0.92, "zone": "Kedzi coastal strip", "label": "PUBLIC-OPEN DATA", "period": "2017-03-07 to 2025-01-07 (7.84 yr)"}, "geometry": {"type": "Point", "coordinates": [1.0070460185087189, 5.945995825353462]}}, {"type": "Feature", "properties": {"transect_id": 329, "change_m": -28.7, "rate_m_per_yr": -3.66, "zone": "Kedzi coastal strip", "label": "PUBLIC-OPEN DATA", "period": "2017-03-07 to 2025-01-07 (7.84 yr)"}, "geometry": {"type": "Point", "coordinates": [1.0075711277993031, 5.946735676864728]}}, {"type": "Feature", "properties": {"transect_id": 330, "change_m": -28.7, "rate_m_per_yr": -3.66, "zone": "Kedzi coastal strip", "label": "PUBLIC-OPEN DATA", "period": "2017-03-07 to 2025-01-07 (7.84 yr)"}, "geometry": {"type": "Point", "coordinates": [1.0080950020425363, 5.9474764061759195]}}, {"type": "Feature", "properties": {"transect_id": 331, "change_m": -21.4, "rate_m_per_yr": -2.73, "zone": "Kedzi coastal strip", "label": "PUBLIC-OPEN DATA", "period": "2017-03-07 to 2025-01-07 (7.84 yr)"}, "geometry": {"type": "Point", "coordinates": [1.00863141792772, 5.948207948587332]}}, {"type": "Feature", "properties": {"transect_id": 332, "change_m": -21.1, "rate_m_per_yr": -2.7, "zone": "Kedzi coastal strip", "label": "PUBLIC-OPEN DATA", "period": "2017-03-07 to 2025-01-07 (7.84 yr)"}, "geometry": {"type": "Point", "coordinates": [1.0091778481867963, 5.948932158996399]}}, {"type": "Feature", "properties": {"transect_id": 333, "change_m": -31.6, "rate_m_per_yr": -4.03, "zone": "Kedzi coastal strip", "label": "PUBLIC-OPEN DATA", "period": "2017-03-07 to 2025-01-07 (7.84 yr)"}, "geometry": {"type": "Point", "coordinates": [1.0096715296130152, 5.949692732639241]}}, {"type": "Feature", "properties": {"transect_id": 334, "change_m": -20.2, "rate_m_per_yr": -2.58, "zone": "Kedzi coastal strip", "label": "PUBLIC-OPEN DATA", "period": "2017-03-07 to 2025-01-07 (7.84 yr)"}, "geometry": {"type": "Point", "coordinates": [1.0099256519673536, 5.950545324000726]}}, {"type": "Feature", "properties": {"transect_id": 335, "change_m": 168.4, "rate_m_per_yr": 21.49, "zone": "Kedzi coastal strip", "label": "PUBLIC-OPEN DATA", "period": "2017-03-07 to 2025-01-07 (7.84 yr)"}, "geometry": {"type": "Point", "coordinates": [1.0100572218321782, 5.951303280843327]}}, {"type": "Feature", "properties": {"transect_id": 336, "change_m": 49.0, "rate_m_per_yr": 6.26, "zone": "Kedzi coastal strip", "label": "PUBLIC-OPEN DATA", "period": "2017-03-07 to 2025-01-07 (7.84 yr)"}, "geometry": {"type": "Point", "coordinates": [1.0101760704684262, 5.950404757913256]}}, {"type": "Feature", "properties": {"transect_id": 337, "change_m": -35.1, "rate_m_per_yr": -4.48, "zone": "Kedzi coastal strip", "label": "PUBLIC-OPEN DATA", "period": "2017-03-07 to 2025-01-07 (7.84 yr)"}, "geometry": {"type": "Point", "coordinates": [1.0103660629758824, 5.951225693097912]}}, {"type": "Feature", "properties": {"transect_id": 338, "change_m": -37.8, "rate_m_per_yr": -4.82, "zone": "Kedzi coastal strip", "label": "PUBLIC-OPEN DATA", "period": "2017-03-07 to 2025-01-07 (7.84 yr)"}, "geometry": {"type": "Point", "coordinates": [1.010498580229137, 5.952112075968659]}}, {"type": "Feature", "properties": {"transect_id": 339, "change_m": -23.1, "rate_m_per_yr": -2.94, "zone": "Kedzi coastal strip", "label": "PUBLIC-OPEN DATA", "period": "2017-03-07 to 2025-01-07 (7.84 yr)"}, "geometry": {"type": "Point", "coordinates": [1.011032788249406, 5.952845294826523]}}, {"type": "Feature", "properties": {"transect_id": 340, "change_m": -50.3, "rate_m_per_yr": -6.42, "zone": "Kedzi coastal strip", "label": "PUBLIC-OPEN DATA", "period": "2017-03-07 to 2025-01-07 (7.84 yr)"}, "geometry": {"type": "Point", "coordinates": [1.0115431002479327, 5.953595461614549]}}, {"type": "Feature", "properties": {"transect_id": 341, "change_m": -21.6, "rate_m_per_yr": -2.75, "zone": "Kedzi coastal strip", "label": "PUBLIC-OPEN DATA", "period": "2017-03-07 to 2025-01-07 (7.84 yr)"}, "geometry": {"type": "Point", "coordinates": [1.0120525920881538, 5.954346187623024]}}, {"type": "Feature", "properties": {"transect_id": 342, "change_m": -25.2, "rate_m_per_yr": -3.22, "zone": "Kedzi coastal strip", "label": "PUBLIC-OPEN DATA", "period": "2017-03-07 to 2025-01-07 (7.84 yr)"}, "geometry": {"type": "Point", "coordinates": [1.012565500962529, 5.955094567022501]}}, {"type": "Feature", "properties": {"transect_id": 343, "change_m": -13.5, "rate_m_per_yr": -1.72, "zone": "Kedzi coastal strip", "label": "PUBLIC-OPEN DATA", "period": "2017-03-07 to 2025-01-07 (7.84 yr)"}, "geometry": {"type": "Point", "coordinates": [1.0129534802809912, 5.955904761729745]}}, {"type": "Feature", "properties": {"transect_id": 344, "change_m": 43.7, "rate_m_per_yr": 5.57, "zone": "Kedzi coastal strip", "label": "PUBLIC-OPEN DATA", "period": "2017-03-07 to 2025-01-07 (7.84 yr)"}, "geometry": {"type": "Point", "coordinates": [1.0132277883686012, 5.956581757459641]}}, {"type": "Feature", "properties": {"transect_id": 345, "change_m": -20.1, "rate_m_per_yr": -2.57, "zone": "Kedzi coastal strip", "label": "PUBLIC-OPEN DATA", "period": "2017-03-07 to 2025-01-07 (7.84 yr)"}, "geometry": {"type": "Point", "coordinates": [1.0133660649466818, 5.956190718415388]}}, {"type": "Feature", "properties": {"transect_id": 346, "change_m": -41.4, "rate_m_per_yr": -5.28, "zone": "Kedzi coastal strip", "label": "PUBLIC-OPEN DATA", "period": "2017-03-07 to 2025-01-07 (7.84 yr)"}, "geometry": {"type": "Point", "coordinates": [1.0133879445937877, 5.957098096892369]}}, {"type": "Feature", "properties": {"transect_id": 347, "change_m": 59.3, "rate_m_per_yr": 7.57, "zone": "Kedzi coastal strip", "label": "PUBLIC-OPEN DATA", "period": "2017-03-07 to 2025-01-07 (7.84 yr)"}, "geometry": {"type": "Point", "coordinates": [1.0134316934807197, 5.957216661842812]}}, {"type": "Feature", "properties": {"transect_id": 348, "change_m": 21.7, "rate_m_per_yr": 2.77, "zone": "Kedzi coastal strip", "label": "PUBLIC-OPEN DATA", "period": "2017-03-07 to 2025-01-07 (7.84 yr)"}, "geometry": {"type": "Point", "coordinates": [1.013503813327768, 5.956311895799662]}}, {"type": "Feature", "properties": {"transect_id": 349, "change_m": -40.6, "rate_m_per_yr": -5.17, "zone": "Kedzi coastal strip", "label": "PUBLIC-OPEN DATA", "period": "2017-03-07 to 2025-01-07 (7.84 yr)"}, "geometry": {"type": "Point", "coordinates": [1.0136412644159105, 5.956980704322661]}}, {"type": "Feature", "properties": {"transect_id": 350, "change_m": -32.8, "rate_m_per_yr": -4.18, "zone": "Kedzi coastal strip", "label": "PUBLIC-OPEN DATA", "period": "2017-03-07 to 2025-01-07 (7.84 yr)"}, "geometry": {"type": "Point", "coordinates": [1.0137881335852141, 5.957876356171377]}}, {"type": "Feature", "properties": {"transect_id": 351, "change_m": -67.5, "rate_m_per_yr": -8.61, "zone": "Kedzi coastal strip", "label": "PUBLIC-OPEN DATA", "period": "2017-03-07 to 2025-01-07 (7.84 yr)"}, "geometry": {"type": "Point", "coordinates": [1.0140176444992939, 5.958739668487812]}}, {"type": "Feature", "properties": {"transect_id": 352, "change_m": -72.1, "rate_m_per_yr": -9.19, "zone": "Kedzi coastal strip", "label": "PUBLIC-OPEN DATA", "period": "2017-03-07 to 2025-01-07 (7.84 yr)"}, "geometry": {"type": "Point", "coordinates": [1.0144834380393941, 5.9595135045753285]}}, {"type": "Feature", "properties": {"transect_id": 353, "change_m": -42.5, "rate_m_per_yr": -5.42, "zone": "Kedzi coastal strip", "label": "PUBLIC-OPEN DATA", "period": "2017-03-07 to 2025-01-07 (7.84 yr)"}, "geometry": {"type": "Point", "coordinates": [1.014764478579351, 5.960376429343445]}}, {"type": "Feature", "properties": {"transect_id": 354, "change_m": -4.6, "rate_m_per_yr": -0.58, "zone": "Kedzi coastal strip", "label": "PUBLIC-OPEN DATA", "period": "2017-03-07 to 2025-01-07 (7.84 yr)"}, "geometry": {"type": "Point", "coordinates": [1.015092333306041, 5.961222540472642]}}, {"type": "Feature", "properties": {"transect_id": 355, "change_m": -40.2, "rate_m_per_yr": -5.13, "zone": "Kedzi coastal strip", "label": "PUBLIC-OPEN DATA", "period": "2017-03-07 to 2025-01-07 (7.84 yr)"}, "geometry": {"type": "Point", "coordinates": [1.015504065166741, 5.962019789259453]}}, {"type": "Feature", "properties": {"transect_id": 356, "change_m": 0.0, "rate_m_per_yr": 0.0, "zone": "Kedzi coastal strip", "label": "PUBLIC-OPEN DATA", "period": "2017-03-07 to 2025-01-07 (7.84 yr)"}, "geometry": {"type": "Point", "coordinates": [1.0160830368378444, 5.9627182091709825]}}, {"type": "Feature", "properties": {"transect_id": 357, "change_m": 0.0, "rate_m_per_yr": 0.0, "zone": "Kedzi coastal strip", "label": "PUBLIC-OPEN DATA", "period": "2017-03-07 to 2025-01-07 (7.84 yr)"}, "geometry": {"type": "Point", "coordinates": [1.0167034826399972, 5.963378409580502]}}, {"type": "Feature", "properties": {"transect_id": 358, "change_m": 0.0, "rate_m_per_yr": 0.0, "zone": "Kedzi coastal strip", "label": "PUBLIC-OPEN DATA", "period": "2017-03-07 to 2025-01-07 (7.84 yr)"}, "geometry": {"type": "Point", "coordinates": [1.0173475089574782, 5.964016375436782]}}, {"type": "Feature", "properties": {"transect_id": 359, "change_m": 43.6, "rate_m_per_yr": 5.57, "zone": "Kedzi coastal strip", "label": "PUBLIC-OPEN DATA", "period": "2017-03-07 to 2025-01-07 (7.84 yr)"}, "geometry": {"type": "Point", "coordinates": [1.0177913676190178, 5.96480778487061]}}, {"type": "Feature", "properties": {"transect_id": 360, "change_m": -22.3, "rate_m_per_yr": -2.84, "zone": "Kedzi coastal strip", "label": "PUBLIC-OPEN DATA", "period": "2017-03-07 to 2025-01-07 (7.84 yr)"}, "geometry": {"type": "Point", "coordinates": [1.018212447881481, 5.965611109071453]}}, {"type": "Feature", "properties": {"transect_id": 361, "change_m": -25.2, "rate_m_per_yr": -3.21, "zone": "Kedzi coastal strip", "label": "PUBLIC-OPEN DATA", "period": "2017-03-07 to 2025-01-07 (7.84 yr)"}, "geometry": {"type": "Point", "coordinates": [1.0186077282429369, 5.9664279283992085]}}, {"type": "Feature", "properties": {"transect_id": 362, "change_m": 0.0, "rate_m_per_yr": 0.0, "zone": "Kedzi coastal strip", "label": "PUBLIC-OPEN DATA", "period": "2017-03-07 to 2025-01-07 (7.84 yr)"}, "geometry": {"type": "Point", "coordinates": [1.0191157187375333, 5.967169249747851]}}, {"type": "Feature", "properties": {"transect_id": 363, "change_m": 1.9, "rate_m_per_yr": 0.24, "zone": "Kedzi coastal strip", "label": "PUBLIC-OPEN DATA", "period": "2017-03-07 to 2025-01-07 (7.84 yr)"}, "geometry": {"type": "Point", "coordinates": [1.0197189840377456, 5.9678467522176115]}}, {"type": "Feature", "properties": {"transect_id": 364, "change_m": 7.1, "rate_m_per_yr": 0.91, "zone": "Kedzi coastal strip", "label": "PUBLIC-OPEN DATA", "period": "2017-03-07 to 2025-01-07 (7.84 yr)"}, "geometry": {"type": "Point", "coordinates": [1.02030594037941, 5.968538189531275]}}, {"type": "Feature", "properties": {"transect_id": 365, "change_m": 23.0, "rate_m_per_yr": 2.93, "zone": "Kedzi coastal strip", "label": "PUBLIC-OPEN DATA", "period": "2017-03-07 to 2025-01-07 (7.84 yr)"}, "geometry": {"type": "Point", "coordinates": [1.0208793148340793, 5.969241231774947]}}, {"type": "Feature", "properties": {"transect_id": 366, "change_m": 0.0, "rate_m_per_yr": 0.0, "zone": "Kedzi coastal strip", "label": "PUBLIC-OPEN DATA", "period": "2017-03-07 to 2025-01-07 (7.84 yr)"}, "geometry": {"type": "Point", "coordinates": [1.0214890360834645, 5.969912584575453]}}, {"type": "Feature", "properties": {"transect_id": 367, "change_m": -9.1, "rate_m_per_yr": -1.16, "zone": "Kedzi coastal strip", "label": "PUBLIC-OPEN DATA", "period": "2017-03-07 to 2025-01-07 (7.84 yr)"}, "geometry": {"type": "Point", "coordinates": [1.0221057758121717, 5.970577819068302]}}, {"type": "Feature", "properties": {"transect_id": 368, "change_m": 31.4, "rate_m_per_yr": 4.01, "zone": "Kedzi coastal strip", "label": "PUBLIC-OPEN DATA", "period": "2017-03-07 to 2025-01-07 (7.84 yr)"}, "geometry": {"type": "Point", "coordinates": [1.022680591369286, 5.9712796486322635]}}, {"type": "Feature", "properties": {"transect_id": 369, "change_m": -38.8, "rate_m_per_yr": -4.95, "zone": "Kedzi coastal strip", "label": "PUBLIC-OPEN DATA", "period": "2017-03-07 to 2025-01-07 (7.84 yr)"}, "geometry": {"type": "Point", "coordinates": [1.023258541850448, 5.971978912931334]}}, {"type": "Feature", "properties": {"transect_id": 370, "change_m": 0.0, "rate_m_per_yr": 0.0, "zone": "Kedzi coastal strip", "label": "PUBLIC-OPEN DATA", "period": "2017-03-07 to 2025-01-07 (7.84 yr)"}, "geometry": {"type": "Point", "coordinates": [1.0238132257369512, 5.972695060558716]}}, {"type": "Feature", "properties": {"transect_id": 371, "change_m": -7.8, "rate_m_per_yr": -0.99, "zone": "Kedzi coastal strip", "label": "PUBLIC-OPEN DATA", "period": "2017-03-07 to 2025-01-07 (7.84 yr)"}, "geometry": {"type": "Point", "coordinates": [1.0243199452663616, 5.973447570167979]}}, {"type": "Feature", "properties": {"transect_id": 372, "change_m": -8.7, "rate_m_per_yr": -1.11, "zone": "Kedzi coastal strip", "label": "PUBLIC-OPEN DATA", "period": "2017-03-07 to 2025-01-07 (7.84 yr)"}, "geometry": {"type": "Point", "coordinates": [1.0248354893657, 5.974194163647661]}}, {"type": "Feature", "properties": {"transect_id": 373, "change_m": -12.2, "rate_m_per_yr": -1.55, "zone": "Kedzi coastal strip", "label": "PUBLIC-OPEN DATA", "period": "2017-03-07 to 2025-01-07 (7.84 yr)"}, "geometry": {"type": "Point", "coordinates": [1.025391993706047, 5.974907035819669]}}, {"type": "Feature", "properties": {"transect_id": 374, "change_m": -17.2, "rate_m_per_yr": -2.19, "zone": "Kedzi coastal strip", "label": "PUBLIC-OPEN DATA", "period": "2017-03-07 to 2025-01-07 (7.84 yr)"}, "geometry": {"type": "Point", "coordinates": [1.0259796628446693, 5.975595084326473]}}, {"type": "Feature", "properties": {"transect_id": 375, "change_m": 4.2, "rate_m_per_yr": 0.53, "zone": "Kedzi coastal strip", "label": "PUBLIC-OPEN DATA", "period": "2017-03-07 to 2025-01-07 (7.84 yr)"}, "geometry": {"type": "Point", "coordinates": [1.0265116088044397, 5.97633005613528]}}, {"type": "Feature", "properties": {"transect_id": 376, "change_m": 18.4, "rate_m_per_yr": 2.35, "zone": "Kedzi coastal strip", "label": "PUBLIC-OPEN DATA", "period": "2017-03-07 to 2025-01-07 (7.84 yr)"}, "geometry": {"type": "Point", "coordinates": [1.0270558575924265, 5.977055771561949]}}, {"type": "Feature", "properties": {"transect_id": 377, "change_m": 18.8, "rate_m_per_yr": 2.39, "zone": "Kedzi coastal strip", "label": "PUBLIC-OPEN DATA", "period": "2017-03-07 to 2025-01-07 (7.84 yr)"}, "geometry": {"type": "Point", "coordinates": [1.0276130662482919, 5.977771736221741]}}, {"type": "Feature", "properties": {"transect_id": 378, "change_m": 5.1, "rate_m_per_yr": 0.65, "zone": "Kedzi coastal strip", "label": "PUBLIC-OPEN DATA", "period": "2017-03-07 to 2025-01-07 (7.84 yr)"}, "geometry": {"type": "Point", "coordinates": [1.0281664202611374, 5.978490575299018]}}, {"type": "Feature", "properties": {"transect_id": 379, "change_m": 5.5, "rate_m_per_yr": 0.71, "zone": "Kedzi coastal strip", "label": "PUBLIC-OPEN DATA", "period": "2017-03-07 to 2025-01-07 (7.84 yr)"}, "geometry": {"type": "Point", "coordinates": [1.0286917893746435, 5.979230277238892]}}, {"type": "Feature", "properties": {"transect_id": 380, "change_m": -1.3, "rate_m_per_yr": -0.16, "zone": "Kedzi coastal strip", "label": "PUBLIC-OPEN DATA", "period": "2017-03-07 to 2025-01-07 (7.84 yr)"}, "geometry": {"type": "Point", "coordinates": [1.0292171597398116, 5.979969979121992]}}, {"type": "Feature", "properties": {"transect_id": 381, "change_m": 10.8, "rate_m_per_yr": 1.38, "zone": "Kedzi coastal strip", "label": "PUBLIC-OPEN DATA", "period": "2017-03-07 to 2025-01-07 (7.84 yr)"}, "geometry": {"type": "Point", "coordinates": [1.0297470674384819, 5.980706415559276]}}, {"type": "Feature", "properties": {"transect_id": 382, "change_m": 2.7, "rate_m_per_yr": 0.34, "zone": "Kedzi coastal strip", "label": "PUBLIC-OPEN DATA", "period": "2017-03-07 to 2025-01-07 (7.84 yr)"}, "geometry": {"type": "Point", "coordinates": [1.030280159428151, 5.981440560567657]}}, {"type": "Feature", "properties": {"transect_id": 383, "change_m": 2.4, "rate_m_per_yr": 0.31, "zone": "Kedzi coastal strip", "label": "PUBLIC-OPEN DATA", "period": "2017-03-07 to 2025-01-07 (7.84 yr)"}, "geometry": {"type": "Point", "coordinates": [1.030797275387357, 5.982184595959492]}}, {"type": "Feature", "properties": {"transect_id": 384, "change_m": -18.7, "rate_m_per_yr": -2.38, "zone": "Kedzi coastal strip", "label": "PUBLIC-OPEN DATA", "period": "2017-03-07 to 2025-01-07 (7.84 yr)"}, "geometry": {"type": "Point", "coordinates": [1.031325019271467, 5.98291659955452]}}, {"type": "Feature", "properties": {"transect_id": 385, "change_m": -5.1, "rate_m_per_yr": -0.65, "zone": "Kedzi coastal strip", "label": "PUBLIC-OPEN DATA", "period": "2017-03-07 to 2025-01-07 (7.84 yr)"}, "geometry": {"type": "Point", "coordinates": [1.031917894174225, 5.983603208501429]}}, {"type": "Feature", "properties": {"transect_id": 386, "change_m": 10.6, "rate_m_per_yr": 1.35, "zone": "Kedzi coastal strip", "label": "PUBLIC-OPEN DATA", "period": "2017-03-07 to 2025-01-07 (7.84 yr)"}, "geometry": {"type": "Point", "coordinates": [1.0324905814660537, 5.984306317136235]}}, {"type": "Feature", "properties": {"transect_id": 387, "change_m": 11.2, "rate_m_per_yr": 1.43, "zone": "Kedzi coastal strip", "label": "PUBLIC-OPEN DATA", "period": "2017-03-07 to 2025-01-07 (7.84 yr)"}, "geometry": {"type": "Point", "coordinates": [1.0330282190582136, 5.985035105609984]}}, {"type": "Feature", "properties": {"transect_id": 388, "change_m": -14.6, "rate_m_per_yr": -1.87, "zone": "Kedzi coastal strip", "label": "PUBLIC-OPEN DATA", "period": "2017-03-07 to 2025-01-07 (7.84 yr)"}, "geometry": {"type": "Point", "coordinates": [1.0333078970558482, 5.98588106949898]}}, {"type": "Feature", "properties": {"transect_id": 389, "change_m": 21.3, "rate_m_per_yr": 2.71, "zone": "Kedzi coastal strip", "label": "PUBLIC-OPEN DATA", "period": "2017-03-07 to 2025-01-07 (7.84 yr)"}, "geometry": {"type": "Point", "coordinates": [1.0339111539144579, 5.986555365000344]}}, {"type": "Feature", "properties": {"transect_id": 390, "change_m": -14.3, "rate_m_per_yr": -1.83, "zone": "Kedzi coastal strip", "label": "PUBLIC-OPEN DATA", "period": "2017-03-07 to 2025-01-07 (7.84 yr)"}, "geometry": {"type": "Point", "coordinates": [1.0343810109889944, 5.987286580698093]}}, {"type": "Feature", "properties": {"transect_id": 391, "change_m": -6.7, "rate_m_per_yr": -0.86, "zone": "Kedzi coastal strip", "label": "PUBLIC-OPEN DATA", "period": "2017-03-07 to 2025-01-07 (7.84 yr)"}, "geometry": {"type": "Point", "coordinates": [1.0348681523596308, 5.988005856540636]}}, {"type": "Feature", "properties": {"transect_id": 392, "change_m": -44.2, "rate_m_per_yr": -5.64, "zone": "Kedzi coastal strip", "label": "PUBLIC-OPEN DATA", "period": "2017-03-07 to 2025-01-07 (7.84 yr)"}, "geometry": {"type": "Point", "coordinates": [1.0349975943580216, 5.988606659637605]}}, {"type": "Feature", "properties": {"transect_id": 393, "change_m": -0.9, "rate_m_per_yr": -0.12, "zone": "Kedzi coastal strip", "label": "PUBLIC-OPEN DATA", "period": "2017-03-07 to 2025-01-07 (7.84 yr)"}, "geometry": {"type": "Point", "coordinates": [1.0352050930449572, 5.988446807366624]}}, {"type": "Feature", "properties": {"transect_id": 394, "change_m": 23.3, "rate_m_per_yr": 2.97, "zone": "Kedzi coastal strip", "label": "PUBLIC-OPEN DATA", "period": "2017-03-07 to 2025-01-07 (7.84 yr)"}, "geometry": {"type": "Point", "coordinates": [1.0353586566214046, 5.989341345431788]}}, {"type": "Feature", "properties": {"transect_id": 395, "change_m": -20.6, "rate_m_per_yr": -2.63, "zone": "Kedzi coastal strip", "label": "PUBLIC-OPEN DATA", "period": "2017-03-07 to 2025-01-07 (7.84 yr)"}, "geometry": {"type": "Point", "coordinates": [1.0358385027005856, 5.990097393421522]}}, {"type": "Feature", "properties": {"transect_id": 396, "change_m": 16.3, "rate_m_per_yr": 2.07, "zone": "Kedzi coastal strip", "label": "PUBLIC-OPEN DATA", "period": "2017-03-07 to 2025-01-07 (7.84 yr)"}, "geometry": {"type": "Point", "coordinates": [1.0363739073575329, 5.990829860088037]}}, {"type": "Feature", "properties": {"transect_id": 397, "change_m": 0.0, "rate_m_per_yr": 0.0, "zone": "Kedzi coastal strip", "label": "PUBLIC-OPEN DATA", "period": "2017-03-07 to 2025-01-07 (7.84 yr)"}, "geometry": {"type": "Point", "coordinates": [1.0369091165766584, 5.991562470606375]}}, {"type": "Feature", "properties": {"transect_id": 398, "change_m": 50.6, "rate_m_per_yr": 6.46, "zone": "Kedzi coastal strip", "label": "PUBLIC-OPEN DATA", "period": "2017-03-07 to 2025-01-07 (7.84 yr)"}, "geometry": {"type": "Point", "coordinates": [1.037443537733473, 5.99229565856161]}}, {"type": "Feature", "properties": {"transect_id": 399, "change_m": 25.4, "rate_m_per_yr": 3.24, "zone": "Kedzi coastal strip", "label": "PUBLIC-OPEN DATA", "period": "2017-03-07 to 2025-01-07 (7.84 yr)"}, "geometry": {"type": "Point", "coordinates": [1.0379779601688823, 5.993028846443491]}}, {"type": "Feature", "properties": {"transect_id": 400, "change_m": 7.2, "rate_m_per_yr": 0.92, "zone": "Kedzi coastal strip", "label": "PUBLIC-OPEN DATA", "period": "2017-03-07 to 2025-01-07 (7.84 yr)"}, "geometry": {"type": "Point", "coordinates": [1.0385129924746035, 5.99376158904292]}}, {"type": "Feature", "properties": {"transect_id": 401, "change_m": -6.0, "rate_m_per_yr": -0.76, "zone": "Kedzi coastal strip", "label": "PUBLIC-OPEN DATA", "period": "2017-03-07 to 2025-01-07 (7.84 yr)"}, "geometry": {"type": "Point", "coordinates": [1.0390489747193108, 5.99449362315353]}}, {"type": "Feature", "properties": {"transect_id": 402, "change_m": 33.2, "rate_m_per_yr": 4.23, "zone": "Kedzi coastal strip", "label": "PUBLIC-OPEN DATA", "period": "2017-03-07 to 2025-01-07 (7.84 yr)"}, "geometry": {"type": "Point", "coordinates": [1.0396037601768475, 5.99521149303891]}}, {"type": "Feature", "properties": {"transect_id": 403, "change_m": 78.6, "rate_m_per_yr": 10.03, "zone": "Kedzi coastal strip", "label": "PUBLIC-OPEN DATA", "period": "2017-03-07 to 2025-01-07 (7.84 yr)"}, "geometry": {"type": "Point", "coordinates": [1.040145753763885, 5.995939015711115]}}, {"type": "Feature", "properties": {"transect_id": 404, "change_m": 39.1, "rate_m_per_yr": 4.98, "zone": "Kedzi coastal strip", "label": "PUBLIC-OPEN DATA", "period": "2017-03-07 to 2025-01-07 (7.84 yr)"}, "geometry": {"type": "Point", "coordinates": [1.0406821947917317, 5.996670728865893]}}, {"type": "Feature", "properties": {"transect_id": 405, "change_m": 24.0, "rate_m_per_yr": 3.06, "zone": "Kedzi coastal strip", "label": "PUBLIC-OPEN DATA", "period": "2017-03-07 to 2025-01-07 (7.84 yr)"}, "geometry": {"type": "Point", "coordinates": [1.0411924645575454, 5.997420654263666]}}, {"type": "Feature", "properties": {"transect_id": 406, "change_m": 28.9, "rate_m_per_yr": 3.69, "zone": "Kedzi coastal strip", "label": "PUBLIC-OPEN DATA", "period": "2017-03-07 to 2025-01-07 (7.84 yr)"}, "geometry": {"type": "Point", "coordinates": [1.0416905406384955, 5.998179065511161]}}, {"type": "Feature", "properties": {"transect_id": 407, "change_m": 7.2, "rate_m_per_yr": 0.92, "zone": "Kedzi coastal strip", "label": "PUBLIC-OPEN DATA", "period": "2017-03-07 to 2025-01-07 (7.84 yr)"}, "geometry": {"type": "Point", "coordinates": [1.0421796476114098, 5.998943301350191]}}, {"type": "Feature", "properties": {"transect_id": 408, "change_m": 2.5, "rate_m_per_yr": 0.32, "zone": "Kedzi coastal strip", "label": "PUBLIC-OPEN DATA", "period": "2017-03-07 to 2025-01-07 (7.84 yr)"}, "geometry": {"type": "Point", "coordinates": [1.0427287925353377, 5.999659664666242]}}, {"type": "Feature", "properties": {"transect_id": 409, "change_m": -5.3, "rate_m_per_yr": -0.68, "zone": "Kedzi coastal strip", "label": "PUBLIC-OPEN DATA", "period": "2017-03-07 to 2025-01-07 (7.84 yr)"}, "geometry": {"type": "Point", "coordinates": [1.0433384933543464, 6.0003301819276285]}}, {"type": "Feature", "properties": {"transect_id": 410, "change_m": -5.2, "rate_m_per_yr": -0.66, "zone": "Kedzi coastal strip", "label": "PUBLIC-OPEN DATA", "period": "2017-03-07 to 2025-01-07 (7.84 yr)"}, "geometry": {"type": "Point", "coordinates": [1.0439102989286766, 6.001034546107358]}}, {"type": "Feature", "properties": {"transect_id": 411, "change_m": 0.0, "rate_m_per_yr": 0.0, "zone": "Kedzi coastal strip", "label": "PUBLIC-OPEN DATA", "period": "2017-03-07 to 2025-01-07 (7.84 yr)"}, "geometry": {"type": "Point", "coordinates": [1.0444387377766364, 6.001771822540234]}}]}